CCSDS_OMM_VERS = 2.0
CREATION_DATE  = 
ORIGINATOR     = 

OBJECT_NAME    = TWILIGHT B
OBJECT_ID      = 2026-004B
CENTER_NAME    = EARTH
REF_FRAME      = TEME
TIME_SYSTEM    = UTC
MEAN_ELEMENT_THEORY = SGP/SGP4

EPOCH          = 2026-01-30T02:50:51.927648
MEAN_MOTION    = 14.87091115
ECCENTRICITY   = .0007562
INCLINATION    = 97.7990
RA_OF_ASC_NODE = 30.9538
ARG_OF_PERICENTER = 223.2468
MEAN_ANOMALY   = 136.8155

EPHEMERIS_TYPE = 0
CLASSIFICATION_TYPE = U
NORAD_CAT_ID   = 67364
ELEMENT_SET_NO = 999
REV_AT_EPOCH   = 276
BSTAR          = .81949E-3
MEAN_MOTION_DOT = .7309E-4
MEAN_MOTION_DDOT = 0

CCSDS_OMM_VERS = 2.0
CREATION_DATE  = 
ORIGINATOR     = 

OBJECT_NAME    = TWILIGHT C
OBJECT_ID      = 2026-004C
CENTER_NAME    = EARTH
REF_FRAME      = TEME
TIME_SYSTEM    = UTC
MEAN_ELEMENT_THEORY = SGP/SGP4

EPOCH          = 2026-01-30T01:13:35.326848
MEAN_MOTION    = 14.87105853
ECCENTRICITY   = .0007178
INCLINATION    = 97.7967
RA_OF_ASC_NODE = 30.8860
ARG_OF_PERICENTER = 229.4122
MEAN_ANOMALY   = 130.6470

EPHEMERIS_TYPE = 0
CLASSIFICATION_TYPE = U
NORAD_CAT_ID   = 67365
ELEMENT_SET_NO = 999
REV_AT_EPOCH   = 275
BSTAR          = .85614E-3
MEAN_MOTION_DOT = .7641E-4
MEAN_MOTION_DDOT = 0

CCSDS_OMM_VERS = 2.0
CREATION_DATE  = 
ORIGINATOR     = 

OBJECT_NAME    = TWILIGHT D
OBJECT_ID      = 2026-004D
CENTER_NAME    = EARTH
REF_FRAME      = TEME
TIME_SYSTEM    = UTC
MEAN_ELEMENT_THEORY = SGP/SGP4

EPOCH          = 2026-01-30T02:49:58.670688
MEAN_MOTION    = 14.87103736
ECCENTRICITY   = .0007723
INCLINATION    = 97.8022
RA_OF_ASC_NODE = 30.9574
ARG_OF_PERICENTER = 216.3590
MEAN_ANOMALY   = 143.7102

EPHEMERIS_TYPE = 0
CLASSIFICATION_TYPE = U
NORAD_CAT_ID   = 67366
ELEMENT_SET_NO = 999
REV_AT_EPOCH   = 276
BSTAR          = .56429E-3
MEAN_MOTION_DOT = .5016E-4
MEAN_MOTION_DDOT = 0

CCSDS_OMM_VERS = 2.0
CREATION_DATE  = 
ORIGINATOR     = 

OBJECT_NAME    = TWILIGHT E
OBJECT_ID      = 2026-004E
CENTER_NAME    = EARTH
REF_FRAME      = TEME
TIME_SYSTEM    = UTC
MEAN_ELEMENT_THEORY = SGP/SGP4

EPOCH          = 2026-01-30T02:48:28.658304
MEAN_MOTION    = 14.87232661
ECCENTRICITY   = .0006662
INCLINATION    = 97.7954
RA_OF_ASC_NODE = 30.9527
ARG_OF_PERICENTER = 231.0113
MEAN_ANOMALY   = 129.0510

EPHEMERIS_TYPE = 0
CLASSIFICATION_TYPE = U
NORAD_CAT_ID   = 67367
ELEMENT_SET_NO = 999
REV_AT_EPOCH   = 276
BSTAR          = .83429E-3
MEAN_MOTION_DOT = .7468E-4
MEAN_MOTION_DDOT = 0

CCSDS_OMM_VERS = 2.0
CREATION_DATE  = 
ORIGINATOR     = 

OBJECT_NAME    = TWILIGHT F
OBJECT_ID      = 2026-004F
CENTER_NAME    = EARTH
REF_FRAME      = TEME
TIME_SYSTEM    = UTC
MEAN_ELEMENT_THEORY = SGP/SGP4

EPOCH          = 2026-01-30T02:47:46.068288
MEAN_MOTION    = 14.87263038
ECCENTRICITY   = .0007077
INCLINATION    = 97.8015
RA_OF_ASC_NODE = 30.9592
ARG_OF_PERICENTER = 218.2105
MEAN_ANOMALY   = 141.8610

EPHEMERIS_TYPE = 0
CLASSIFICATION_TYPE = U
NORAD_CAT_ID   = 67368
ELEMENT_SET_NO = 999
REV_AT_EPOCH   = 276
BSTAR          = .79909E-3
MEAN_MOTION_DOT = .7156E-4
MEAN_MOTION_DDOT = 0

CCSDS_OMM_VERS = 2.0
CREATION_DATE  = 
ORIGINATOR     = 

OBJECT_NAME    = TWILIGHT G
OBJECT_ID      = 2026-004G
CENTER_NAME    = EARTH
REF_FRAME      = TEME
TIME_SYSTEM    = UTC
MEAN_ELEMENT_THEORY = SGP/SGP4

EPOCH          = 2026-01-30T02:46:46.193088
MEAN_MOTION    = 14.87257575
ECCENTRICITY   = .0006065
INCLINATION    = 97.7947
RA_OF_ASC_NODE = 30.9537
ARG_OF_PERICENTER = 232.7638
MEAN_ANOMALY   = 127.3025

EPHEMERIS_TYPE = 0
CLASSIFICATION_TYPE = U
NORAD_CAT_ID   = 67369
ELEMENT_SET_NO = 999
REV_AT_EPOCH   = 276
BSTAR          = .4142E-3
MEAN_MOTION_DOT = .368E-4
MEAN_MOTION_DDOT = 0

CCSDS_OMM_VERS = 2.0
CREATION_DATE  = 
ORIGINATOR     = 

OBJECT_NAME    = TWILIGHT H
OBJECT_ID      = 2026-004H
CENTER_NAME    = EARTH
REF_FRAME      = TEME
TIME_SYSTEM    = UTC
MEAN_ELEMENT_THEORY = SGP/SGP4

EPOCH          = 2026-01-30T02:45:45.255168
MEAN_MOTION    = 14.87368206
ECCENTRICITY   = .0005735
INCLINATION    = 97.7944
RA_OF_ASC_NODE = 30.9541
ARG_OF_PERICENTER = 233.2011
MEAN_ANOMALY   = 126.8679

EPHEMERIS_TYPE = 0
CLASSIFICATION_TYPE = U
NORAD_CAT_ID   = 67370
ELEMENT_SET_NO = 999
REV_AT_EPOCH   = 276
BSTAR          = .87589E-3
MEAN_MOTION_DOT = .7869E-4
MEAN_MOTION_DDOT = 0

CCSDS_OMM_VERS = 2.0
CREATION_DATE  = 
ORIGINATOR     = 

OBJECT_NAME    = TWILIGHT J
OBJECT_ID      = 2026-004J
CENTER_NAME    = EARTH
REF_FRAME      = TEME
TIME_SYSTEM    = UTC
MEAN_ELEMENT_THEORY = SGP/SGP4

EPOCH          = 2026-01-30T02:39:38.701440
MEAN_MOTION    = 14.87764933
ECCENTRICITY   = .0004958
INCLINATION    = 97.7986
RA_OF_ASC_NODE = 30.9634
ARG_OF_PERICENTER = 215.0396
MEAN_ANOMALY   = 145.0495

EPHEMERIS_TYPE = 0
CLASSIFICATION_TYPE = U
NORAD_CAT_ID   = 67371
ELEMENT_SET_NO = 999
REV_AT_EPOCH   = 276
BSTAR          = .97801E-3
MEAN_MOTION_DOT = .8879E-4
MEAN_MOTION_DDOT = 0

CCSDS_OMM_VERS = 2.0
CREATION_DATE  = 
ORIGINATOR     = 

OBJECT_NAME    = TWILIGHT K
OBJECT_ID      = 2026-004K
CENTER_NAME    = EARTH
REF_FRAME      = TEME
TIME_SYSTEM    = UTC
MEAN_ELEMENT_THEORY = SGP/SGP4

EPOCH          = 2026-01-30T02:34:15.300192
MEAN_MOTION    = 14.87956624
ECCENTRICITY   = .0003284
INCLINATION    = 97.7966
RA_OF_ASC_NODE = 30.9652
ARG_OF_PERICENTER = 207.7645
MEAN_ANOMALY   = 152.3397

EPHEMERIS_TYPE = 0
CLASSIFICATION_TYPE = U
NORAD_CAT_ID   = 67372
ELEMENT_SET_NO = 999
REV_AT_EPOCH   = 276
BSTAR          = .38649E-3
MEAN_MOTION_DOT = .349E-4
MEAN_MOTION_DDOT = 0

CCSDS_OMM_VERS = 2.0
CREATION_DATE  = 
ORIGINATOR     = 

OBJECT_NAME    = TWILIGHT L
OBJECT_ID      = 2026-004L
CENTER_NAME    = EARTH
REF_FRAME      = TEME
TIME_SYSTEM    = UTC
MEAN_ELEMENT_THEORY = SGP/SGP4

EPOCH          = 2026-01-30T02:41:17.060928
MEAN_MOTION    = 14.87559816
ECCENTRICITY   = .0004886
INCLINATION    = 97.7978
RA_OF_ASC_NODE = 30.9610
ARG_OF_PERICENTER = 220.8508
MEAN_ANOMALY   = 139.2343

EPHEMERIS_TYPE = 0
CLASSIFICATION_TYPE = U
NORAD_CAT_ID   = 67373
ELEMENT_SET_NO = 999
REV_AT_EPOCH   = 276
BSTAR          = .34184E-3
MEAN_MOTION_DOT = .305E-4
MEAN_MOTION_DDOT = 0

CCSDS_OMM_VERS = 2.0
CREATION_DATE  = 
ORIGINATOR     = 

OBJECT_NAME    = TWILIGHT M
OBJECT_ID      = 2026-004M
CENTER_NAME    = EARTH
REF_FRAME      = TEME
TIME_SYSTEM    = UTC
MEAN_ELEMENT_THEORY = SGP/SGP4

EPOCH          = 2026-01-30T02:35:27.542688
MEAN_MOTION    = 14.87912546
ECCENTRICITY   = .0003575
INCLINATION    = 97.7964
RA_OF_ASC_NODE = 30.9629
ARG_OF_PERICENTER = 208.6012
MEAN_ANOMALY   = 151.5009

EPHEMERIS_TYPE = 0
CLASSIFICATION_TYPE = U
NORAD_CAT_ID   = 67374
ELEMENT_SET_NO = 999
REV_AT_EPOCH   = 276
BSTAR          = .44308E-3
MEAN_MOTION_DOT = .4005E-4
MEAN_MOTION_DDOT = 0

CCSDS_OMM_VERS = 2.0
CREATION_DATE  = 
ORIGINATOR     = 

OBJECT_NAME    = TWILIGHT N
OBJECT_ID      = 2026-004N
CENTER_NAME    = EARTH
REF_FRAME      = TEME
TIME_SYSTEM    = UTC
MEAN_ELEMENT_THEORY = SGP/SGP4

EPOCH          = 2026-01-30T02:34:58.703232
MEAN_MOTION    = 14.87938758
ECCENTRICITY   = .0004166
INCLINATION    = 97.8001
RA_OF_ASC_NODE = 30.9702
ARG_OF_PERICENTER = 203.3954
MEAN_ANOMALY   = 156.7073

EPHEMERIS_TYPE = 0
CLASSIFICATION_TYPE = U
NORAD_CAT_ID   = 67375
ELEMENT_SET_NO = 999
REV_AT_EPOCH   = 276
BSTAR          = .39068E-3
MEAN_MOTION_DOT = .3527E-4
MEAN_MOTION_DDOT = 0

