TWILIGHT B              
1 67364U 26004B   26030.11865657  .00007309  00000+0  81949-3 0  9990
2 67364  97.7990  30.9538 0007562 223.2468 136.8155 14.87091115  2765
TWILIGHT C              
1 67365U 26004C   26030.05110332  .00007641  00000+0  85614-3 0  9999
2 67365  97.7967  30.8860 0007178 229.4122 130.6470 14.87105853  2751
TWILIGHT D              
1 67366U 26004D   26030.11804017  .00005016  00000+0  56429-3 0  9993
2 67366  97.8022  30.9574 0007723 216.3590 143.7102 14.87103736  2764
TWILIGHT E              
1 67367U 26004E   26030.11699836  .00007468  00000+0  83429-3 0  9998
2 67367  97.7954  30.9527 0006662 231.0113 129.0510 14.87232661  2762
TWILIGHT F              
1 67368U 26004F   26030.11650542  .00007156  00000+0  79909-3 0  9992
2 67368  97.8015  30.9592 0007077 218.2105 141.8610 14.87263038  2768
TWILIGHT G              
1 67369U 26004G   26030.11581242  .00003680  00000+0  41420-3 0  9998
2 67369  97.7947  30.9537 0006065 232.7638 127.3025 14.87257575  2767
TWILIGHT H              
1 67370U 26004H   26030.11510712  .00007869  00000+0  87589-3 0  9993
2 67370  97.7944  30.9541 0005735 233.2011 126.8679 14.87368206  2768
TWILIGHT J              
1 67371U 26004J   26030.11086460  .00008879  00000+0  97801-3 0  9992
2 67371  97.7986  30.9634 0004958 215.0396 145.0495 14.87764933  2764
TWILIGHT K              
1 67372U 26004K   26030.10712153  .00003490  00000+0  38649-3 0  9996
2 67372  97.7966  30.9652 0003284 207.7645 152.3397 14.87956624  2761
TWILIGHT L              
1 67373U 26004L   26030.11200302  .00003050  00000+0  34184-3 0  9998
2 67373  97.7978  30.9610 0004886 220.8508 139.2343 14.87559816  2769
TWILIGHT M              
1 67374U 26004M   26030.10795767  .00004005  00000+0  44308-3 0  9992
2 67374  97.7964  30.9629 0003575 208.6012 151.5009 14.87912546  2762
TWILIGHT N              
1 67375U 26004N   26030.10762388  .00003527  00000+0  39068-3 0  9991
2 67375  97.8001  30.9702 0004166 203.3954 156.7073 14.87938758  2763
